[
    {
        "Altitude(m)": 554398.9745332669,
        "Argument of Periapsis(deg)": 0.026491964442854003,
        "Eccentricity": 0.0,
        "Inclination(deg)": 53.0,
        "Latitude(deg)": -1.2245224430242971,
        "Longitude(deg)": -119.10184807836964,
        "Mean Anomaly(deg)": -1.4517285296896016,
        "RAAN(deg)": 344.9605734741121,
        "Satellite Name": "Starlink Shell 1 1537",
        "Satellite Number": 1537,
        "Semi-Major Axis(m)": 6931778.249405717,
        "Time(s)": 760
    },
    {
        "Altitude(m)": 554328.2161272399,
        "Argument of Periapsis(deg)": 0.02684054292236524,
        "Eccentricity": 0.0,
        "Inclination(deg)": 53.0,
        "Latitude(deg)": -0.7206429827233699,
        "Longitude(deg)": -118.76638280911973,
        "Mean Anomaly(deg)": -0.8248973261329569,
        "RAAN(deg)": 344.9600547040346,
        "Satellite Name": "Starlink Shell 1 1537",
        "Satellite Number": 1537,
        "Semi-Major Axis(m)": 6931778.249405717,
        "Time(s)": 770
    },
    {
        "Altitude(m)": 554260.2427551356,
        "Argument of Periapsis(deg)": 0.027189121401876473,
        "Eccentricity": 0.0,
        "Inclination(deg)": 53.0,
        "Latitude(deg)": -0.21672121922660675,
        "Longitude(deg)": -118.43099308977656,
        "Mean Anomaly(deg)": -0.19806612257610862,
        "RAAN(deg)": 344.95953593395717,
        "Satellite Name": "Starlink Shell 1 1537",
        "Satellite Number": 1537,
        "Semi-Major Axis(m)": 6931778.249405717,
        "Time(s)": 780
    },
    {
        "Altitude(m)": 554195.0636689685,
        "Argument of Periapsis(deg)": 0.02753769988138771,
        "Eccentricity": 0.0,
        "Inclination(deg)": 53.0,
        "Latitude(deg)": 0.28721995299866515,
        "Longitude(deg)": -118.09562088660346,
        "Mean Anomaly(deg)": 0.4287650809805871,
        "RAAN(deg)": 344.95901716387965,
        "Satellite Name": "Starlink Shell 1 1537",
        "Satellite Number": 1537,
        "Semi-Major Axis(m)": 6931778.249405717,
        "Time(s)": 790
    },
    {
        "Altitude(m)": 554132.6867661594,
        "Argument of Periapsis(deg)": 0.02788627836089895,
        "Eccentricity": 0.0,
        "Inclination(deg)": 53.0,
        "Latitude(deg)": 0.7911576407205019,
        "Longitude(deg)": -117.7602086753252,
        "Mean Anomaly(deg)": 1.0555962845372318,
        "RAAN(deg)": 344.9584983938022,
        "Satellite Name": "Starlink Shell 1 1537",
        "Satellite Number": 1537,
        "Semi-Major Axis(m)": 6931778.249405717,
        "Time(s)": 800
    },
    {
        "Altitude(m)": 554073.118588354,
        "Argument of Periapsis(deg)": 0.02823485684041019,
        "Eccentricity": 0.0,
        "Inclination(deg)": 53.0,
        "Latitude(deg)": 1.2950689402644013,
        "Longitude(deg)": -117.42469891161298,
        "Mean Anomaly(deg)": 1.6824274880939785,
        "RAAN(deg)": 344.9579796237247,
        "Satellite Name": "Starlink Shell 1 1537",
        "Satellite Number": 1537,
        "Semi-Major Axis(m)": 6931778.249405717,
        "Time(s)": 810
    },
    {
        "Altitude(m)": 554016.3643209063,
        "Argument of Periapsis(deg)": 0.028583435319921423,
        "Eccentricity": 0.0,
        "Inclination(deg)": 53.0,
        "Latitude(deg)": 1.7989309258271458,
        "Longitude(deg)": -117.08903350155964,
        "Mean Anomaly(deg)": 2.309258691650725,
        "RAAN(deg)": 344.95746085364726,
        "Satellite Name": "Starlink Shell 1 1537",
        "Satellite Number": 1537,
        "Semi-Major Axis(m)": 6931778.249405717,
        "Time(s)": 820
    },
    {
        "Altitude(m)": 553962.4277930829,
        "Argument of Periapsis(deg)": 0.028932013799432665,
        "Eccentricity": 0.0,
        "Inclination(deg)": 53.0,
        "Latitude(deg)": 2.302720637772117,
        "Longitude(deg)": -116.75315478501066,
        "Mean Anomaly(deg)": 2.93608989520742,
        "RAAN(deg)": 344.95694208356974,
        "Satellite Name": "Starlink Shell 1 1537",
        "Satellite Number": 1537,
        "Semi-Major Axis(m)": 6931778.249405717,
        "Time(s)": 830
    },
    {
        "Altitude(m)": 553911.3114789021,
        "Argument of Periapsis(deg)": 0.029280592278943897,
        "Eccentricity": 0.0,
        "Inclination(deg)": 53.0,
        "Latitude(deg)": 2.8064150708921467,
        "Longitude(deg)": -116.4170050059968,
        "Mean Anomaly(deg)": 3.562921098764065,
        "RAAN(deg)": 344.9564233134923,
        "Satellite Name": "Starlink Shell 1 1537",
        "Satellite Number": 1537,
        "Semi-Major Axis(m)": 6931778.249405717,
        "Time(s)": 840
    },
    {
        "Altitude(m)": 553863.0164986557,
        "Argument of Periapsis(deg)": 0.029629170758455132,
        "Eccentricity": 0.0,
        "Inclination(deg)": 53.0,
        "Latitude(deg)": 3.3099911626296374,
        "Longitude(deg)": -116.080525783135,
        "Mean Anomaly(deg)": 4.189752302320914,
        "RAAN(deg)": 344.9559045434148,
        "Satellite Name": "Starlink Shell 1 1537",
        "Satellite Number": 1537,
        "Semi-Major Axis(m)": 6931778.249405717,
        "Time(s)": 850
    },
    {
        "Altitude(m)": 553817.542621147,
        "Argument of Periapsis(deg)": 0.02997774923796637,
        "Eccentricity": 0.0,
        "Inclination(deg)": 53.0,
        "Latitude(deg)": 3.81342578124366,
        "Longitude(deg)": -115.74365926095977,
        "Mean Anomaly(deg)": 4.81658350587761,
        "RAAN(deg)": 344.9553857733373,
        "Satellite Name": "Starlink Shell 1 1537",
        "Satellite Number": 1537,
        "Semi-Major Axis(m)": 6931778.249405717,
        "Time(s)": 860
    },
    {
        "Altitude(m)": 553774.8882665623,
        "Argument of Periapsis(deg)": 0.030326327717477602,
        "Eccentricity": 0.0,
        "Inclination(deg)": 53.0,
        "Latitude(deg)": 4.316695713911307,
        "Longitude(deg)": -115.40634673975163,
        "Mean Anomaly(deg)": 5.443414709434204,
        "RAAN(deg)": 344.9548670032599,
        "Satellite Name": "Starlink Shell 1 1537",
        "Satellite Number": 1537,
        "Semi-Major Axis(m)": 6931778.249405717,
        "Time(s)": 870
    },
    {
        "Altitude(m)": 553735.0505100259,
        "Argument of Periapsis(deg)": 0.030674906196988847,
        "Eccentricity": 0.0,
        "Inclination(deg)": 53.0,
        "Latitude(deg)": 4.819777654753393,
        "Longitude(deg)": -115.0685298267686,
        "Mean Anomaly(deg)": 6.070245912991001,
        "RAAN(deg)": 344.95434823318243,
        "Satellite Name": "Starlink Shell 1 1537",
        "Satellite Number": 1537,
        "Semi-Major Axis(m)": 6931778.249405717,
        "Time(s)": 880
    },
    {
        "Altitude(m)": 553698.0250858342,
        "Argument of Periapsis(deg)": 0.031023484676500086,
        "Eccentricity": 0.0,
        "Inclination(deg)": 53.0,
        "Latitude(deg)": 5.322648192770585,
        "Longitude(deg)": -114.73014990644702,
        "Mean Anomaly(deg)": 6.697077116547696,
        "RAAN(deg)": 344.9538294631049,
        "Satellite Name": "Starlink Shell 1 1537",
        "Satellite Number": 1537,
        "Semi-Major Axis(m)": 6931778.249405717,
        "Time(s)": 890
    },
    {
        "Altitude(m)": 553663.8063923558,
        "Argument of Periapsis(deg)": 0.03137206315601132,
        "Eccentricity": 0.0,
        "Inclination(deg)": 53.0,
        "Latitude(deg)": 5.825283799681188,
        "Longitude(deg)": -114.39114761053555,
        "Mean Anomaly(deg)": 7.323908320104391,
        "RAAN(deg)": 344.9533106930275,
        "Satellite Name": "Starlink Shell 1 1537",
        "Satellite Number": 1537,
        "Semi-Major Axis(m)": 6931778.249405717,
        "Time(s)": 900
    },
    {
        "Altitude(m)": 553632.3874975968,
        "Argument of Periapsis(deg)": 0.03172064163552255,
        "Eccentricity": 0.0,
        "Inclination(deg)": 53.0,
        "Latitude(deg)": 6.327660817648164,
        "Longitude(deg)": -114.05146380103182,
        "Mean Anomaly(deg)": 7.950739523661087,
        "RAAN(deg)": 344.95279192295,
        "Satellite Name": "Starlink Shell 1 1537",
        "Satellite Number": 1537,
        "Semi-Major Axis(m)": 6931778.249405717,
        "Time(s)": 910
    },
    {
        "Altitude(m)": 553603.7601454234,
        "Argument of Periapsis(deg)": 0.0320692201150338,
        "Eccentricity": 0.0,
        "Inclination(deg)": 53.0,
        "Latitude(deg)": 6.82975544688307,
        "Longitude(deg)": -113.71103904016746,
        "Mean Anomaly(deg)": 8.577570727217834,
        "RAAN(deg)": 344.9522731528725,
        "Satellite Name": "Starlink Shell 1 1537",
        "Satellite Number": 1537,
        "Semi-Major Axis(m)": 6931778.249405717,
        "Time(s)": 920
    },
    {
        "Altitude(m)": 553577.9147624567,
        "Argument of Periapsis(deg)": 0.032417798594545036,
        "Eccentricity": 0.0,
        "Inclination(deg)": 53.0,
        "Latitude(deg)": 7.331543733114888,
        "Longitude(deg)": -113.36981306031262,
        "Mean Anomaly(deg)": 9.204401930774582,
        "RAAN(deg)": 344.95175438279506,
        "Satellite Name": "Starlink Shell 1 1537",
        "Satellite Number": 1537,
        "Semi-Major Axis(m)": 6931778.249405717,
        "Time(s)": 930
    },
    {
        "Altitude(m)": 553554.8404656006,
        "Argument of Periapsis(deg)": 0.03276637707405627,
        "Eccentricity": 0.0,
        "Inclination(deg)": 53.0,
        "Latitude(deg)": 7.8330015549152145,
        "Longitude(deg)": -113.02772574666741,
        "Mean Anomaly(deg)": 9.831233134331276,
        "RAAN(deg)": 344.95123561271754,
        "Satellite Name": "Starlink Shell 1 1537",
        "Satellite Number": 1537,
        "Semi-Major Axis(m)": 6931778.249405717,
        "Time(s)": 940
    }
]